NORAD_CAT_ID,OBJECT_NAME,OBJECT_TYPE,EPOCH,MEAN_MOTION,ECCENTRICITY,INCLINATION,RA_OF_ASC_NODE,ARG_OF_PERICENTER,MEAN_ANOMALY,BSTAR,MEAN_MOTION_DOT,MEAN_MOTION_DDOT,TLE_LINE0,TLE_LINE1,TLE_LINE2,SEMIMAJOR_AXIS,PERIOD,APOGEE,PERIGEE,DECAYED
55294.0,STARLINK-5286,PAYLOAD,2023-04-17 13:51:23,14.98334974,0.0003074,69.9993,189.6888,271.5617,88.519,-4.1985e-05,-5.94e-06,0.0,0 STARLINK-5286,1 55294U 23010AB  23107.57735767 -.00000594  00000-0 -41985-4 0  9992,2 55294  69.9993 189.6888 0003074 271.5617  88.5190 14.98334974 14438,6950.178,96.107,574.179,569.906,0.0
55294.0,STARLINK-5286,PAYLOAD,2023-04-17 22:00:00,14.98336128,0.0003313,70.0013,188.8338,273.3559,116.4896,-0.001232,-0.00014765,0.0,0 STARLINK-5286,1 55294U 23010AB  23107.91667824 -.00014765  00000-0 -12320-2 0  9992,2 55294  70.0013 188.8338 0003313 273.3559 116.4896 14.98336128  1305,6950.174,96.107,574.342,569.736,0.0
55294.0,STARLINK-5286,PAYLOAD,2023-04-18 14:00:01,14.98347266,0.0003352,70.0014,187.1531,274.2921,110.5404,-0.002714,-0.00032342,0.0,0 STARLINK-5286,1 55294U 23010AB  23108.58334491 -.00032342  00000-0 -27140-2 0  9994,2 55294  70.0014 187.1531 0003352 274.2921 110.5404 14.98347266  1304,6950.139,96.106,574.334,569.675,0.0
55294.0,STARLINK-5286,PAYLOAD,2023-04-18 18:00:00,14.98334554,0.000334,70.0011,186.7329,273.9134,289.6682,-0.0019629,-0.00023439,0.0,0 STARLINK-5286,1 55294U 23010AB  23108.75001157 -.00023439  00000-0 -19629-2 0  9993,2 55294  70.0011 186.7329 0003340 273.9134 289.6682 14.98334554 14306,6950.179,96.107,574.365,569.722,0.0
55294.0,STARLINK-5286,PAYLOAD,2023-04-18 22:00:00,14.98323361,0.0003293,70.0012,186.3127,270.5975,111.7292,-0.0010363,-0.00012434,0.0,0 STARLINK-5286,1 55294U 23010AB  23108.91667824 -.00012434  00000-0 -10363-2 0  9999,2 55294  70.0012 186.3127 0003293 270.5975 111.7292 14.98323361  1304,6950.213,96.107,574.367,569.79,0.0
55294.0,STARLINK-5286,PAYLOAD,2023-04-19 09:07:01,14.98326782,0.0003195,69.999,185.1447,270.8882,89.1911,4.4545e-05,4.38e-06,0.0,0 STARLINK-5286,1 55294U 23010AB  23109.37987946  .00000438  00000-0  44545-4 0  9990,2 55294  69.9990 185.1447 0003195 270.8882  89.1911 14.98326782 14703,6950.203,96.107,574.288,569.847,0.0
55294.0,STARLINK-5286,PAYLOAD,2023-04-19 15:31:33,14.98333143,0.0002798,70.0001,184.4724,267.3971,92.6867,9.1492e-05,9.99e-06,0.0,0 STARLINK-5286,1 55294U 23010AB  23109.64691425  .00000999  00000-0  91492-4 0  9999,2 55294  70.0001 184.4724 0002798 267.3971  92.6867 14.98333143 14749,6950.183,96.107,573.993,570.104,0.0
55294.0,STARLINK-5286,PAYLOAD,2023-04-20 09:09:02,14.98333488,0.0002892,70.0001,182.6214,269.1255,90.9572,-1.5175e-05,-2.74e-06,0.0,0 STARLINK-5286,1 55294U 23010AB  23110.38127507 -.00000274  00000-0 -15175-4 0  9999,2 55294  70.0001 182.6214 0002892 269.1255  90.9572 14.98333488 14851,6950.182,96.107,574.057,570.037,0.0
55294.0,STARLINK-5286,PAYLOAD,2023-04-20 12:21:18,14.9833348,0.0002903,70.0,182.2847,269.2688,90.8138,-1.7423e-05,-3.01e-06,0.0,0 STARLINK-5286,1 55294U 23010AB  23110.51479482 -.00000301  00000-0 -17423-4 0  9995,2 55294  70.0000 182.2847 0002903 269.2688  90.8138 14.98333480 14570,6950.182,96.107,574.065,570.029,0.0
55294.0,STARLINK-5286,PAYLOAD,2023-04-20 13:57:26,14.98333684,0.000292,70.0,182.1163,269.6759,90.4065,-1.9127e-05,-3.21e-06,0.0,0 STARLINK-5286,1 55294U 23010AB  23110.58155443 -.00000321  00000-0 -19127-4 0  9995,2 55294  70.0000 182.1163 0002920 269.6759  90.4065 14.98333684 14887,6950.181,96.107,574.076,570.017,0.0
55294.0,STARLINK-5286,PAYLOAD,2023-04-21 05:58:46,14.98322471,0.0004508,70.0001,180.4346,259.3484,100.7168,7.9032e-05,8.5e-06,0.0,0 STARLINK-5286,1 55294U 23010AB  23111.24915293  .00000850  00000-0  79032-4 0  9992,2 55294  70.0001 180.4346 0004508 259.3484 100.7168 14.98322471 14989,6950.216,96.107,575.214,568.948,0.0
55294.0,STARLINK-5286,PAYLOAD,2023-04-21 13:59:26,14.98375548,0.000313,70.0,179.5928,262.9065,97.1738,-0.00092025,-0.00011069,0.0,0 STARLINK-5286,1 55294U 23010AB  23111.58294575 -.00011069  00000-0 -92025-3 0  9994,2 55294  70.0000 179.5928 0003130 262.9065  97.1738 14.98375548 14736,6950.052,96.104,574.092,569.742,0.0
55294.0,STARLINK-5286,PAYLOAD,2023-04-21 22:00:07,14.9832787,0.0003081,69.9995,178.749,272.5213,87.5594,8.91e-05,9.7e-06,0.0,0 STARLINK-5286,1 55294U 23010AB  23111.91675583  .00000970  00000-0  89100-4 0  9991,2 55294  69.9995 178.7490 0003081 272.5213  87.5594 14.98327870 15085,6950.199,96.107,574.206,569.923,0.0
55294.0,STARLINK-5286,PAYLOAD,2023-04-22 04:24:39,14.98327415,0.0003212,69.999,178.0748,270.6555,89.4236,8.795e-05,9.56e-06,0.0,0 STARLINK-5286,1 55294U 23010AB  23112.18379519  .00000956  00000-0  87950-4 0  9996,2 55294  69.9990 178.0748 0003212 270.6555  89.4236 14.98327415 15127,6950.201,96.107,574.298,569.833,0.0
55294.0,STARLINK-5286,PAYLOAD,2023-04-22 22:02:08,14.98330899,0.0003064,69.9991,176.2239,275.6173,84.4636,8.2152e-06,5e-08,0.0,0 STARLINK-5286,1 55294U 23010AB  23112.91815425  .00000005  00000-0  82152-5 0  9993,2 55294  69.9991 176.2239 0003064 275.6173  84.4636 14.98330899 15230,6950.19,96.107,574.185,569.926,0.0
55294.0,STARLINK-5286,PAYLOAD,2023-04-23 06:02:50,14.98244246,0.0002597,69.9995,175.3827,274.6202,85.4661,0.0012698,0.00015057,0.0,0 STARLINK-5286,1 55294U 23010AB  23113.25196964  .00015057  00000-0  12698-2 0  9999,2 55294  69.9995 175.3827 0002597 274.6202  85.4661 14.98244246 14989,6950.458,96.112,574.128,570.518,0.0
55294.0,STARLINK-5286,PAYLOAD,2023-04-23 10:51:14,14.98302313,0.0002966,69.9995,174.8778,271.7854,88.2965,0.00034093,3.974e-05,0.0,0 STARLINK-5286,1 55294U 23010AB  23113.45224611  .00003974  00000-0  34093-3 0  9991,2 55294  69.9995 174.8778 0002966 271.7854  88.2965 14.98302313 15315,6950.279,96.109,574.205,570.082,0.0
55294.0,STARLINK-5286,PAYLOAD,2023-04-24 02:52:33,14.98341827,0.000299,69.9993,173.1943,272.7172,87.3645,8.275e-05,8.95e-06,0.0,0 STARLINK-5286,1 55294U 23010AB  23114.11982743  .00000895  00000-0  82750-4 0  9995,2 55294  69.9993 173.1943 0002990 272.7172  87.3645 14.98341827 15419,6950.156,96.106,574.099,569.943,0.0
55294.0,STARLINK-5286,PAYLOAD,2023-04-25 10:55:16,14.98308167,0.0002891,69.9991,169.83,264.6788,95.4041,-0.00014859,-1.864e-05,0.0,0 STARLINK-5286,1 55294U 23010AB  23115.45504991 -.00001864  00000-0 -14859-3 0  9991,2 55294  69.9991 169.8300 0002891 264.6788  95.4041 14.98308167 15318,6950.26,96.108,574.135,570.116,0.0
55294.0,STARLINK-5286,PAYLOAD,2023-04-26 10:57:17,14.98320498,0.0002723,69.9996,167.3047,274.4698,85.615,-0.00018228,-2.267e-05,0.0,0 STARLINK-5286,1 55294U 23010AB  23116.45645342 -.00002267  00000-0 -18228-3 0  9990,2 55294  69.9996 167.3047 0002723 274.4698  85.6150 14.98320498 15769,6950.222,96.108,573.98,570.195,0.0
55294.0,STARLINK-5286,PAYLOAD,2023-04-26 20:34:07,14.98291091,0.0003955,69.9986,166.294,270.5513,89.5192,2.9427e-06,-5.8e-07,0.0,0 STARLINK-5286,1 55294U 23010AB  23116.85702574 -.00000058  00000-0  29427-5 0  9995,2 55294  69.9986 166.2940 0003955 270.5513  89.5192 14.98291091 15821,6950.313,96.109,574.927,569.429,0.0
55294.0,STARLINK-5286,PAYLOAD,2023-04-27 04:34:46,14.98315989,0.0003016,69.9986,165.4525,276.0975,83.984,0.00026762,3.1e-05,0.0,0 STARLINK-5286,1 55294U 23010AB  23117.19081281  .00003100  00000-0  26762-3 0  9995,2 55294  69.9986 165.4525 0003016 276.0975  83.9840 14.98315989 15575,6950.236,96.108,574.197,570.005,0.0
55294.0,STARLINK-5286,PAYLOAD,2023-04-27 12:35:26,14.98316662,0.0002847,69.9987,164.6102,276.3099,83.7736,0.00028147,3.266e-05,0.0,0 STARLINK-5286,1 55294U 23010AB  23117.52461517  .00003266  00000-0  28147-3 0  9998,2 55294  69.9987 164.6102 0002847 276.3099  83.7736 14.98316662 15929,6950.234,96.108,574.078,570.12,0.0
55294.0,STARLINK-5286,PAYLOAD,2023-04-28 06:12:54,14.98333835,0.0003149,69.9988,162.7589,280.9007,79.1798,0.00026386,3.057e-05,0.0,0 STARLINK-5286,1 55294U 23010AB  23118.25896644  .00003057  00000-0  26386-3 0  9993,2 55294  69.9988 162.7589 0003149 280.9007  79.1798 14.98333835 15731,6950.181,96.107,574.235,569.857,0.0
55294.0,STARLINK-5286,PAYLOAD,2023-04-28 11:01:18,14.98338187,0.0003037,69.9987,162.2546,277.4099,82.6714,0.00028578,3.319e-05,0.0,0 STARLINK-5286,1 55294U 23010AB  23118.45924219  .00003319  00000-0  28578-3 0  9991,2 55294  69.9987 162.2546 0003037 277.4099  82.6714 14.98338187 16065,6950.168,96.106,574.143,569.922,0.0
55294.0,STARLINK-5286,PAYLOAD,2023-04-29 12:39:26,14.98346511,0.0002938,69.9984,159.561,275.9246,84.1578,8.9623e-05,9.77e-06,0.0,0 STARLINK-5286,1 55294U 23010AB  23119.52739503  .00000977  00000-0  89623-4 0  9996,2 55294  69.9984 159.5610 0002938 275.9246  84.1578 14.98346511 16222,6950.142,96.106,574.049,569.965,0.0
55294.0,STARLINK-5286,PAYLOAD,2023-04-30 03:04:39,14.98341648,0.0003111,69.9983,158.0448,281.0083,79.0726,-6.3029e-05,-8.45e-06,0.0,0 STARLINK-5286,1 55294U 23010AB  23120.12823592 -.00000845  00000-0 -63029-4 0  9994,2 55294  69.9983 158.0448 0003111 281.0083  79.0726 14.98341648 16016,6950.157,96.106,574.184,569.86,0.0
55294.0,STARLINK-5286,PAYLOAD,2023-04-30 12:41:27,14.98339797,0.0002968,69.9983,157.0345,279.0868,80.9955,-0.00010455,-1.341e-05,0.0,0 STARLINK-5286,1 55294U 23010AB  23120.52879501 -.00001341  00000-0 -10455-3 0  9995,2 55294  69.9983 157.0345 0002968 279.0868  80.9955 14.98339797 16374,6950.163,96.106,574.09,569.965,0.0
55294.0,STARLINK-5286,PAYLOAD,2023-05-01 06:18:56,14.98336483,0.0003031,69.9981,155.1828,278.9328,81.1488,-0.00010903,-1.394e-05,0.0,0 STARLINK-5286,1 55294U 23010AB  23121.26315279 -.00001394  00000-0 -10903-3 0  9990,2 55294  69.9981 155.1828 0003031 278.9328  81.1488 14.98336483 16180,6950.173,96.107,574.144,569.931,0.0
55294.0,STARLINK-5286,PAYLOAD,2023-05-01 12:43:28,14.98333229,0.0002907,69.9983,154.5098,273.2748,86.8079,-0.00012002,-1.525e-05,0.0,0 STARLINK-5286,1 55294U 23010AB  23121.53019403 -.00001525  00000-0 -12002-3 0  9998,2 55294  69.9983 154.5098 0002907 273.2748  86.8079 14.98333229 16520,6950.183,96.107,574.068,570.027,0.0
